NORAD_CAT_ID,OBJECT_NAME,OBJECT_TYPE,EPOCH,MEAN_MOTION,ECCENTRICITY,INCLINATION,RA_OF_ASC_NODE,ARG_OF_PERICENTER,MEAN_ANOMALY,BSTAR,MEAN_MOTION_DOT,MEAN_MOTION_DDOT,TLE_LINE0,TLE_LINE1,TLE_LINE2,SEMIMAJOR_AXIS,PERIOD,APOGEE,PERIGEE,DECAYED
53565.0,STARLINK-4575,PAYLOAD,2022-10-24 14:00:01,15.60543719,0.0001153,53.2173,189.3516,83.4729,173.0414,-0.014889,-0.01131962,0.0,0 STARLINK-4575,1 53565U 22101AQ  22297.58334491 -.01131962  00000-0 -14889-1 0  9995,2 53565  53.2173 189.3516 0001153  83.4729 173.0414 15.60543719  1308,6764.222,92.276,386.867,385.3080000000001,0.0
53565.0,STARLINK-4575,PAYLOAD,2022-10-24 22:00:00,15.597378,0.0001094,53.2167,187.736,99.1388,230.5943,-0.015519,-0.01142596,0.0,0 STARLINK-4575,1 53565U 22101AQ  22297.91667824 -.01142596  00000-0 -15519-1 0  9997,2 53565  53.2167 187.7360 0001094  99.1388 230.5943 15.59737800  1309,6766.552,92.323,389.158,387.677,0.0
53565.0,STARLINK-4575,PAYLOAD,2022-10-25 06:00:00,15.589235999999998,0.0001059,53.2164,186.1208,67.90899999999999,334.0696,-0.015986,-0.01140973,0.0,0 STARLINK-4575,1 53565U 22101AQ  22298.25001157 -.01140973  00000-0 -15986-1 0  9991,2 53565  53.2164 186.1208 0001059  67.9090 334.0696 15.58923600 10482,6768.908,92.371,391.49,390.056,0.0
53565.0,STARLINK-4575,PAYLOAD,2022-10-25 14:00:01,15.58103611,0.0001163,53.2173,184.5042,74.7949,38.4569,-0.0163759999999999,-0.01133677,0.0,0 STARLINK-4575,1 53565U 22101AQ  22298.58334491 -.01133677  00000-0 -16376-1 0  9994,2 53565  53.2173 184.5042 0001163  74.7949  38.4569 15.58103611  1302,6771.283,92.42,393.935,392.36,0.0
53565.0,STARLINK-4575,PAYLOAD,2022-10-25 22:00:01,15.57297398,0.0001238,53.2168,182.8946,90.3835,93.2181,-0.017033,-0.01142792,0.0,0 STARLINK-4575,1 53565U 22101AQ  22298.91668981 -.01142792  00000-0 -17033-1 0  9994,2 53565  53.2168 182.8946 0001238  90.3835  93.2181 15.57297398  1305,6773.62,92.468,396.323,394.646,0.0
53565.0,STARLINK-4575,PAYLOAD,2022-10-26 06:00:00,15.56484833,0.0001236,53.2165,181.285,77.4265,175.4221,-0.017597,-0.01144885,0.0,0 STARLINK-4575,1 53565U 22101AQ  22299.25001157 -.01144885  00000-0 -17597-1 0  9998,2 53565  53.2165 181.2850 0001236  77.4265 175.4221 15.56484833 10635,6775.977,92.516,398.679,397.004,0.0
53565.0,STARLINK-4575,PAYLOAD,2022-10-26 14:00:01,15.5565981,0.0001062,53.2174,179.6744,83.6215,237.5681,-0.017862,-0.01128518,0.0,0 STARLINK-4575,1 53565U 22101AQ  22299.58334491 -.01128518  00000-0 -17862-1 0  9994,2 53565  53.2174 179.6744 0001062  83.6215 237.5681 15.55659810  1301,6778.371999999999,92.565,400.957,399.517,0.0
53565.0,STARLINK-4575,PAYLOAD,2022-10-26 22:00:00,15.54849103,0.0001144,53.2176,178.0702,64.1852,324.3586,-0.018479,-0.01132496,0.0,0 STARLINK-4575,1 53565U 22101AQ  22299.91667824 -.01132496  00000-0 -18479-1 0  9995,2 53565  53.2176 178.0702 0001144  64.1852 324.3586 15.54849103  1306,6780.728,92.613,403.369,401.818,0.0
53565.0,STARLINK-4575,PAYLOAD,2022-10-27 06:00:00,15.54034436,0.0001111,53.2172,176.46599999999995,85.5832,9.3399,-0.019004,-0.01130402,0.0,0 STARLINK-4575,1 53565U 22101AQ  22300.25001157 -.01130402  00000-0 -19004-1 0  9996,2 53565  53.2172 176.4660 0001111  85.5832   9.3399 15.54034436 10796,6783.098000000001,92.662,405.716,404.209,0.0
53565.0,STARLINK-4575,PAYLOAD,2022-10-27 14:00:01,15.53220369,0.0001308,53.2162,174.8636,67.9827,92.406,-0.019578,-0.01130375,0.0,0 STARLINK-4575,1 53565U 22101AQ  22300.58335648 -.01130375  00000-0 -19578-1 0  9992,2 53565  53.2162 174.8636 0001308  67.9827  92.4060 15.53220369  1302,6785.468000000003,92.711,408.22,406.445,0.0
53565.0,STARLINK-4575,PAYLOAD,2022-10-27 22:00:00,15.52405313,0.0001361,53.2173,173.2642,67.1038,157.6438,-0.020123,-0.01128105,0.0,0 STARLINK-4575,1 53565U 22101AQ  22300.91667824 -.01128105  00000-0 -20123-1 0  9999,2 53565  53.2173 173.2642 0001361  67.1038 157.6438 15.52405313  1305,6787.843000000003,92.759,410.631,408.784,0.0
53565.0,STARLINK-4575,PAYLOAD,2022-10-28 14:00:01,15.50657596,0.0001109,53.2166,170.0687,84.8436,265.9025,-0.0147099999999999,-0.00788851,0.0,0 STARLINK-4575,1 53565U 22101AQ  22301.58335648 -.00788851  00000-0 -14710-1 0  9993,2 53565  53.2166 170.0687 0001109  84.8436 265.9025 15.50657596  1304,6792.941999999999,92.864,415.56,414.054,0.0
53565.0,STARLINK-4575,PAYLOAD,2022-10-28 22:00:01,15.50088856,0.0001286,53.2168,168.476,100.0866,312.1478,-0.0091507,-0.00492004,0.0,0 STARLINK-4575,1 53565U 22101AQ  22301.91668981 -.00492004  00000-0 -91507-2 0  9991,2 53565  53.2168 168.4760 0001286 100.0866 312.1478 15.50088856 11050,6794.603,92.898,417.342,415.595,0.0
53565.0,STARLINK-4575,PAYLOAD,2022-10-29 08:00:01,15.49760608,0.0001389,53.2175,166.4832,100.0975,118.1835,-0.022231,-0.01132707,0.0,0 STARLINK-4575,1 53565U 22101AQ  22302.33334491 -.01132707  00000-0 -22231-1 0  9993,2 53565  53.2175 166.4832 0001389 100.0975 118.1835 15.49760608 11119,6795.563,92.918,418.372,416.484,0.0
53565.0,STARLINK-4575,PAYLOAD,2022-10-29 12:00:00,15.49349179,0.0001069,53.2174,165.6863,96.6341,331.9031,-0.022437,-0.01127095,0.0,0 STARLINK-4575,1 53565U 22101AQ  22302.50001157 -.01127095  00000-0 -22437-1 0  9994,2 53565  53.2174 165.6863 0001069  96.6341 331.9031 15.49349179  1304,6796.766,92.942,419.357,417.904,0.0
53565.0,STARLINK-4575,PAYLOAD,2022-10-29 22:00:01,15.48361575,0.000129,53.2168,163.7005,93.587,139.5629,-0.024147,-0.01184813,0.0,0 STARLINK-4575,1 53565U 22101AQ  22302.91668981 -.01184813  00000-0 -24147-1 0  9994,2 53565  53.2168 163.7005 0001290  93.5870 139.5629 15.48361575  1301,6799.656,93.002,422.398,420.643,0.0
53565.0,STARLINK-4575,PAYLOAD,2022-10-30 14:00:01,15.46703473,0.0001087,53.2175,160.5233,84.5025,264.7218,-0.02455,-0.01140627,0.0,0 STARLINK-4575,1 53565U 22101AQ  22303.58334491 -.01140627  00000-0 -24550-1 0  9997,2 53565  53.2175 160.5233 0001087  84.5025 264.7218 15.46703473  1303,6804.514,93.101,427.119,425.64,0.0
53565.0,STARLINK-4575,PAYLOAD,2022-10-30 22:00:01,15.45877423,0.000111,53.217,158.9411,85.0131,320.8749,-0.0248539999999999,-0.01123664,0.0,0 STARLINK-4575,1 53565U 22101AQ  22303.91668981 -.01123664  00000-0 -24854-1 0  9997,2 53565  53.2170 158.9411 0001110  85.0131 320.8749 15.45877423  1307,6806.938,93.151,429.559,428.048,0.0
53565.0,STARLINK-4575,PAYLOAD,2022-10-31 14:00:01,15.44269942,0.0001335,53.2166,155.7765,68.8375,87.234,-0.02696,-0.0115085999999999,0.0,0 STARLINK-4575,1 53565U 22101AQ  22304.58334491 -.01150860  00000-0 -26960-1 0  9995,2 53565  53.2166 155.7765 0001335  68.8375  87.2340 15.44269942  1308,6811.661,93.248,434.435,432.617,0.0
53565.0,STARLINK-4575,PAYLOAD,2022-10-31 22:00:01,15.43456929,0.0001314,53.2167,154.1994,92.75,117.0461,-0.0277529999999999,-0.01152182,0.0,0 STARLINK-4575,1 53565U 22101AQ  22304.91668981 -.01152182  00000-0 -27753-1 0  9996,2 53565  53.2167 154.1994 0001314  92.7500 117.0461 15.43456929 11511,6814.053000000001,93.297,436.81300000000016,435.022,0.0
53565.0,STARLINK-4575,PAYLOAD,2022-11-01 14:00:01,15.41822617,0.0001104,53.2167,151.0462,72.0414,242.0833,-0.0290209999999999,-0.01141015,0.0,0 STARLINK-4575,1 53565U 22101AQ  22305.58334491 -.01141015  00000-0 -29021-1 0  9999,2 53565  53.2167 151.0462 0001104  72.0414 242.0833 15.41822617  1306,6818.8669999999975,93.396,441.485,439.979,0.0
53565.0,STARLINK-4575,PAYLOAD,2022-11-01 22:00:00,15.4101886,0.0001199,53.2168,149.4752,83.1846,281.6631,-0.030271,-0.01157025,0.0,0 STARLINK-4575,1 53565U 22101AQ  22305.91667824 -.01157025  00000-0 -30271-1 0  9992,2 53565  53.2168 149.4752 0001199  83.1846 281.6631 15.41018860  1308,6821.238,93.445,443.921,442.285,0.0
53565.0,STARLINK-4575,PAYLOAD,2022-11-02 14:00:01,15.39380044,0.0001235,53.2175,146.3329,83.4157,19.9603,-0.03143,-0.01139255,0.0,0 STARLINK-4575,1 53565U 22101AQ  22306.58334491 -.01139255  00000-0 -31430-1 0  9990,2 53565  53.2175 146.3329 0001235  83.4157  19.9603 15.39380044  1305,6826.078,93.544,448.786,447.1,0.0
53565.0,STARLINK-4575,PAYLOAD,2022-11-02 22:00:00,15.38566772,0.000147,53.2175,144.7679,60.8582,90.3107,-0.032311,-0.01140165,0.0,0 STARLINK-4575,1 53565U 22101AQ  22306.91667824 -.01140165  00000-0 -32311-1 0  9997,2 53565  53.2175 144.7679 0001470  60.8582  90.3107 15.38566772 11820,6828.484,93.594,451.352,449.345,0.0
53565.0,STARLINK-4575,PAYLOAD,2022-11-03 14:00:01,15.36940511,0.0001416,53.2167,141.6383,64.0479,179.7759,-0.034094,-0.01140675,0.0,0 STARLINK-4575,1 53565U 22101AQ  22307.58334491 -.01140675  00000-0 -34094-1 0  9998,2 53565  53.2167 141.6383 0001416  64.0479 179.7759 15.36940511  1302,6833.3,93.693,456.132,454.197,0.0
53565.0,STARLINK-4575,PAYLOAD,2022-11-03 22:00:00,15.36125232,0.0001419,53.2176,140.0785,55.9925,232.6921,-0.034952,-0.01138999,0.0,0 STARLINK-4575,1 53565U 22101AQ  22307.91667824 -.01138999  00000-0 -34952-1 0  9993,2 53565  53.2176 140.0785 0001419  55.9925 232.6921 15.36125232 11978,6835.717,93.742,458.552,456.612,0.0
53565.0,STARLINK-4575,PAYLOAD,2022-11-04 00:00:00,15.35920404,0.0001385999999999,53.2175,139.6885,46.1738,343.5737,-0.035107,-0.01136701,0.0,0 STARLINK-4575,1 53565U 22101AQ  22308.00001157 -.01136701  00000-0 -35107-1 0  9997,2 53565  53.2175 139.6885 0001386  46.1738 343.5737 15.35920404  1305,6836.325,93.755,459.138,457.242,0.0
53565.0,STARLINK-4575,PAYLOAD,2022-11-04 14:00:01,15.34498059,0.0001319,53.2177,136.9601,53.088,322.3854,-0.036838,-0.01139138,0.0,0 STARLINK-4575,1 53565U 22101AQ  22308.58334491 -.01139138  00000-0 -36838-1 0  9999,2 53565  53.2177 136.9601 0001319  53.0880 322.3854 15.34498059  1304,6840.549,93.842,463.316,461.512,0.0
53565.0,STARLINK-4575,PAYLOAD,2022-11-04 22:00:01,15.33694291,0.0001208,53.2169,135.4068,73.6915,343.7671,-0.038319,-0.0115349,0.0,0 STARLINK-4575,1 53565U 22101AQ  22308.91668981 -.01153490  00000-0 -38319-1 0  9993,2 53565  53.2169 135.4068 0001208  73.6915 343.7671 15.33694291 12132,6842.939,93.891,465.63,463.977,0.0
